{"fetched_at":"2026-07-11T06:35:29.699Z","source":"https://celestrak.org/NORAD/elements/gp.php?NAME=HAWK&FORMAT=JSON","constellation":"hawkeye-360","records":[{"OBJECT_NAME":"HAWK-7B","OBJECT_ID":"2023-054R","EPOCH":"2026-07-10T18:13:18.143328","CLASSIFICATION_TYPE":"U","MEAN_MOTION":15.27600889,"ECCENTRICITY":0.0001829,"INCLINATION":97.2701,"RA_OF_ASC_NODE":76.7697,"ARG_OF_PERICENTER":24.7331,"MEAN_ANOMALY":335.3996,"EPHEMERIS_TYPE":0,"NORAD_CAT_ID":56193,"ELEMENT_SET_NO":999,"REV_AT_EPOCH":18062,"BSTAR":0.00011927,"MEAN_MOTION_DOT":0.00003146,"MEAN_MOTION_DDOT":0},{"OBJECT_NAME":"HAWK-7C","OBJECT_ID":"2023-054Y","EPOCH":"2026-07-10T02:29:52.463616","CLASSIFICATION_TYPE":"U","MEAN_MOTION":15.27600583,"ECCENTRICITY":0.00014906,"INCLINATION":97.2679,"RA_OF_ASC_NODE":76.8926,"ARG_OF_PERICENTER":12.3347,"MEAN_ANOMALY":347.7929,"EPHEMERIS_TYPE":0,"NORAD_CAT_ID":56200,"ELEMENT_SET_NO":999,"REV_AT_EPOCH":18052,"BSTAR":0.00015018629,"MEAN_MOTION_DOT":0.0000398,"MEAN_MOTION_DDOT":0},{"OBJECT_NAME":"HAWK-8A","OBJECT_ID":"2024-066B","EPOCH":"2026-07-10T07:13:03.439200","CLASSIFICATION_TYPE":"U","MEAN_MOTION":14.99277997,"ECCENTRICITY":0.0002619,"INCLINATION":45.5947,"RA_OF_ASC_NODE":157.1267,"ARG_OF_PERICENTER":199.2694,"MEAN_ANOMALY":160.8088,"EPHEMERIS_TYPE":0,"NORAD_CAT_ID":59443,"ELEMENT_SET_NO":999,"REV_AT_EPOCH":12330,"BSTAR":0.000082030609,"MEAN_MOTION_DOT":0.00000785,"MEAN_MOTION_DDOT":0},{"OBJECT_NAME":"HAWK-8B","OBJECT_ID":"2024-066D","EPOCH":"2026-07-10T00:49:54.836544","CLASSIFICATION_TYPE":"U","MEAN_MOTION":14.99280875,"ECCENTRICITY":0.00025984,"INCLINATION":45.6156,"RA_OF_ASC_NODE":160.4732,"ARG_OF_PERICENTER":200.1581,"MEAN_ANOMALY":159.9198,"EPHEMERIS_TYPE":0,"NORAD_CAT_ID":59445,"ELEMENT_SET_NO":999,"REV_AT_EPOCH":12325,"BSTAR":0.00042519846,"MEAN_MOTION_DOT":0.00005038,"MEAN_MOTION_DDOT":0},{"OBJECT_NAME":"HAWK-9A","OBJECT_ID":"2024-066E","EPOCH":"2026-07-09T09:22:53.063616","CLASSIFICATION_TYPE":"U","MEAN_MOTION":14.99204334,"ECCENTRICITY":0.00022393,"INCLINATION":45.6087,"RA_OF_ASC_NODE":162.4649,"ARG_OF_PERICENTER":178.3686,"MEAN_ANOMALY":181.7203,"EPHEMERIS_TYPE":0,"NORAD_CAT_ID":59446,"ELEMENT_SET_NO":999,"REV_AT_EPOCH":12316,"BSTAR":0.00010219892,"MEAN_MOTION_DOT":0.00001032,"MEAN_MOTION_DDOT":0},{"OBJECT_NAME":"HAWK-9C","OBJECT_ID":"2024-066G","EPOCH":"2026-07-10T07:46:39.281664","CLASSIFICATION_TYPE":"U","MEAN_MOTION":14.99209594,"ECCENTRICITY":0.00021363,"INCLINATION":45.6048,"RA_OF_ASC_NODE":156.7415,"ARG_OF_PERICENTER":162.8558,"MEAN_ANOMALY":197.2396,"EPHEMERIS_TYPE":0,"NORAD_CAT_ID":59448,"ELEMENT_SET_NO":999,"REV_AT_EPOCH":12330,"BSTAR":0.000094654784,"MEAN_MOTION_DOT":0.00000939,"MEAN_MOTION_DDOT":0},{"OBJECT_NAME":"HAWK-8C","OBJECT_ID":"2024-066H","EPOCH":"2026-07-10T08:48:55.550304","CLASSIFICATION_TYPE":"U","MEAN_MOTION":14.99281452,"ECCENTRICITY":0.0002422,"INCLINATION":45.6068,"RA_OF_ASC_NODE":157.7751,"ARG_OF_PERICENTER":210.7095,"MEAN_ANOMALY":149.3645,"EPHEMERIS_TYPE":0,"NORAD_CAT_ID":59449,"ELEMENT_SET_NO":999,"REV_AT_EPOCH":12330,"BSTAR":0.000079712,"MEAN_MOTION_DOT":0.00000756,"MEAN_MOTION_DDOT":0},{"OBJECT_NAME":"HAWK-9B","OBJECT_ID":"2024-066J","EPOCH":"2026-07-10T06:10:43.946112","CLASSIFICATION_TYPE":"U","MEAN_MOTION":14.99207538,"ECCENTRICITY":0.00023286,"INCLINATION":45.6129,"RA_OF_ASC_NODE":158.9211,"ARG_OF_PERICENTER":157.1131,"MEAN_ANOMALY":202.9855,"EPHEMERIS_TYPE":0,"NORAD_CAT_ID":59450,"ELEMENT_SET_NO":999,"REV_AT_EPOCH":12329,"BSTAR":0.000095752806,"MEAN_MOTION_DOT":0.00000953,"MEAN_MOTION_DDOT":0},{"OBJECT_NAME":"HAWK-10A","OBJECT_ID":"2024-149CA","EPOCH":"2026-07-10T04:04:59.761632","CLASSIFICATION_TYPE":"U","MEAN_MOTION":14.96585814,"ECCENTRICITY":0.0003607,"INCLINATION":97.6893,"RA_OF_ASC_NODE":266.6868,"ARG_OF_PERICENTER":23.8016,"MEAN_ANOMALY":336.3371,"EPHEMERIS_TYPE":0,"NORAD_CAT_ID":60540,"ELEMENT_SET_NO":999,"REV_AT_EPOCH":10342,"BSTAR":0.00011012794,"MEAN_MOTION_DOT":0.00001196,"MEAN_MOTION_DDOT":0},{"OBJECT_NAME":"HAWK-10B","OBJECT_ID":"2024-149CF","EPOCH":"2026-07-10T10:29:54.549024","CLASSIFICATION_TYPE":"U","MEAN_MOTION":14.96585822,"ECCENTRICITY":0.00059267,"INCLINATION":97.6812,"RA_OF_ASC_NODE":266.2811,"ARG_OF_PERICENTER":31.6486,"MEAN_ANOMALY":328.5091,"EPHEMERIS_TYPE":0,"NORAD_CAT_ID":60545,"ELEMENT_SET_NO":999,"REV_AT_EPOCH":10346,"BSTAR":0.000093023625,"MEAN_MOTION_DOT":0.00001002,"MEAN_MOTION_DDOT":0},{"OBJECT_NAME":"HAWK-10C","OBJECT_ID":"2024-149DM","EPOCH":"2026-07-09T20:03:52.585056","CLASSIFICATION_TYPE":"U","MEAN_MOTION":14.96583877,"ECCENTRICITY":0.00031617,"INCLINATION":97.6731,"RA_OF_ASC_NODE":265.0063,"ARG_OF_PERICENTER":14.0997,"MEAN_ANOMALY":346.0312,"EPHEMERIS_TYPE":0,"NORAD_CAT_ID":60575,"ELEMENT_SET_NO":999,"REV_AT_EPOCH":10337,"BSTAR":0.000095555736,"MEAN_MOTION_DOT":0.00001031,"MEAN_MOTION_DDOT":0},{"OBJECT_NAME":"HAWK-11B","OBJECT_ID":"2024-247C","EPOCH":"2026-07-10T06:36:56.071872","CLASSIFICATION_TYPE":"U","MEAN_MOTION":15.30623067,"ECCENTRICITY":0.00037254,"INCLINATION":45.013,"RA_OF_ASC_NODE":163.1543,"ARG_OF_PERICENTER":353.4639,"MEAN_ANOMALY":6.6196,"EPHEMERIS_TYPE":0,"NORAD_CAT_ID":62379,"ELEMENT_SET_NO":999,"REV_AT_EPOCH":8654,"BSTAR":0.00017560206,"MEAN_MOTION_DOT":0.00004995,"MEAN_MOTION_DDOT":0},{"OBJECT_NAME":"HAWK-11C","OBJECT_ID":"2024-247E","EPOCH":"2026-07-09T14:56:27.860352","CLASSIFICATION_TYPE":"U","MEAN_MOTION":15.3061324,"ECCENTRICITY":0.00047448,"INCLINATION":45.0015,"RA_OF_ASC_NODE":166.0719,"ARG_OF_PERICENTER":340.0518,"MEAN_ANOMALY":20.018,"EPHEMERIS_TYPE":0,"NORAD_CAT_ID":62381,"ELEMENT_SET_NO":999,"REV_AT_EPOCH":8644,"BSTAR":0.00016086033,"MEAN_MOTION_DOT":0.00004549,"MEAN_MOTION_DDOT":0},{"OBJECT_NAME":"HAWK-11A","OBJECT_ID":"2024-247F","EPOCH":"2026-07-10T06:36:23.268384","CLASSIFICATION_TYPE":"U","MEAN_MOTION":15.30620006,"ECCENTRICITY":0.00041413,"INCLINATION":44.9915,"RA_OF_ASC_NODE":161.826,"ARG_OF_PERICENTER":342.5606,"MEAN_ANOMALY":17.5135,"EPHEMERIS_TYPE":0,"NORAD_CAT_ID":62382,"ELEMENT_SET_NO":999,"REV_AT_EPOCH":8654,"BSTAR":0.00015854733,"MEAN_MOTION_DOT":0.0000448,"MEAN_MOTION_DDOT":0},{"OBJECT_NAME":"HAWK-12C","OBJECT_ID":"2025-138A","EPOCH":"2026-07-09T20:17:52.659168","CLASSIFICATION_TYPE":"U","MEAN_MOTION":15.18379418,"ECCENTRICITY":0.00156099,"INCLINATION":97.4353,"RA_OF_ASC_NODE":192.9065,"ARG_OF_PERICENTER":67.9229,"MEAN_ANOMALY":292.3661,"EPHEMERIS_TYPE":0,"NORAD_CAT_ID":64621,"ELEMENT_SET_NO":999,"REV_AT_EPOCH":5730,"BSTAR":0.00013840201,"MEAN_MOTION_DOT":0.00002785,"MEAN_MOTION_DDOT":0},{"OBJECT_NAME":"HAWK-12B","OBJECT_ID":"2025-138B","EPOCH":"2026-07-09T20:18:07.625376","CLASSIFICATION_TYPE":"U","MEAN_MOTION":15.18378814,"ECCENTRICITY":0.00145424,"INCLINATION":97.4474,"RA_OF_ASC_NODE":193.5917,"ARG_OF_PERICENTER":63.915,"MEAN_ANOMALY":296.3579,"EPHEMERIS_TYPE":0,"NORAD_CAT_ID":64622,"ELEMENT_SET_NO":999,"REV_AT_EPOCH":5730,"BSTAR":0.00013789209,"MEAN_MOTION_DOT":0.00002773,"MEAN_MOTION_DDOT":0}]}
